{
 "type": "FeatureCollection",
 "features": [
  {
   "type": "Feature",
   "geometry": {
    "type": "LineString",
    "coordinates": [
     [
      77.6718437,
      12.923947
     ],
     [
      77.6723186,
      12.9241671
     ],
     [
      77.6725215,
      12.924258
     ],
     [
      77.6725735,
      12.9242813
     ],
     [
      77.6733563,
      12.924632
     ]
    ]
   },
   "properties": {
    "segID": "way1146865108/0",
    "name": "Service Road",
    "ward": "Bellanduru",
    "roadClass": "tertiary",
    "lengthM": 180.8,
    "darkness": {
     "alpha": 1.748,
     "beta": 14.252,
     "mean": 0.8908,
     "var": 0.00572
    },
    "exposure": {
     "activity": 0.9025,
     "structural": 0.9911,
     "blended": 0.969
    },
    "confidence": 0.9982,
    "repairPriority": 0.86163,
    "routePenalty": 486.6,
    "reportValue": 0.00554,
    "evidence": {
     "osmLampsWorking": 0,
     "osmLampsBroken": 14,
     "osmLampsUntagged": 0,
     "nightBusTrips": 293.7,
     "wardComplaints2025": 250,
     "reports": 0
    }
   }
  },
  {
   "type": "Feature",
   "geometry": {
    "type": "LineString",
    "coordinates": [
     [
      77.6733563,
      12.924632
     ],
     [
      77.6735691,
      12.9247313
     ],
     [
      77.6737762,
      12.9248083
     ],
     [
      77.6739221,
      12.9248771
     ],
     [
      77.6739601,
      12.924895
     ],
     [
      77.67407,
      12.9249361
     ],
     [
      77.6741048,
      12.9249513
     ],
     [
      77.6741253,
      12.9249602
     ],
     [
      77.674197,
      12.9250023
     ],
     [
      77.6742914,
      12.9250576
     ],
     [
      77.6743581,
      12.9250912
     ],
     [
      77.6749232,
      12.9253754
     ]
    ]
   },
   "properties": {
    "segID": "way1146865108/1",
    "name": "Service Road",
    "ward": "Bellanduru",
    "roadClass": "tertiary",
    "lengthM": 189.1,
    "darkness": {
     "alpha": 1.748,
     "beta": 11.252,
     "mean": 0.8655,
     "var": 0.00831
    },
    "exposure": {
     "activity": 0.9405,
     "structural": 0.9841,
     "blended": 0.9732
    },
    "confidence": 0.9954,
    "repairPriority": 0.83843,
    "routePenalty": 505.4,
    "reportValue": 0.00809,
    "evidence": {
     "osmLampsWorking": 0,
     "osmLampsBroken": 11,
     "osmLampsUntagged": 0,
     "nightBusTrips": 255.6,
     "wardComplaints2025": 250,
     "reports": 0
    }
   }
  },
  {
   "type": "Feature",
   "geometry": {
    "type": "LineString",
    "coordinates": [
     [
      77.6725796,
      12.9241634
     ],
     [
      77.6726301,
      12.9241861
     ],
     [
      77.6726684,
      12.9242033
     ],
     [
      77.6735137,
      12.9245832
     ],
     [
      77.6738264,
      12.924724
     ],
     [
      77.673989,
      12.9248019
     ]
    ]
   },
   "properties": {
    "segID": "way609637808/3",
    "name": "Outer Ring Road",
    "ward": "Bellanduru",
    "roadClass": "trunk",
    "lengthM": 168.4,
    "darkness": {
     "alpha": 1.748,
     "beta": 14.252,
     "mean": 0.8908,
     "var": 0.00572
    },
    "exposure": {
     "activity": 0.9394,
     "structural": 0.9437,
     "blended": 0.9426
    },
    "confidence": 0.9982,
    "repairPriority": 0.83816,
    "routePenalty": 454.7,
    "reportValue": 0.00539,
    "evidence": {
     "osmLampsWorking": 0,
     "osmLampsBroken": 14,
     "osmLampsUntagged": 0,
     "nightBusTrips": 273.0,
     "wardComplaints2025": 250,
     "reports": 0
    }
   }
  },
  {
   "type": "Feature",
   "geometry": {
    "type": "LineString",
    "coordinates": [
     [
      77.6783875,
      12.9254648
     ],
     [
      77.6783784,
      12.9253145
     ],
     [
      77.6783621,
      12.9250444
     ],
     [
      77.6783408,
      12.9247562
     ],
     [
      77.6783261,
      12.9245325
     ],
     [
      77.6782858,
      12.9241352
     ]
    ]
   },
   "properties": {
    "segID": "way719407110/0",
    "name": "",
    "ward": "Bellanduru",
    "roadClass": "residential",
    "lengthM": 148.3,
    "darkness": {
     "alpha": 1.543,
     "beta": 0.457,
     "mean": 0.2284,
     "var": 0.05874
    },
    "exposure": {
     "activity": 0.5587,
     "structural": 0.6113,
     "blended": 0.5981
    },
    "confidence": 0.4907,
    "repairPriority": 0.06703,
    "routePenalty": 343.1,
    "reportValue": 0.03513,
    "evidence": {
     "osmLampsWorking": 0,
     "osmLampsBroken": 0,
     "osmLampsUntagged": 0,
     "nightBusTrips": 141.3,
     "wardComplaints2025": 250,
     "reports": 0
    }
   }
  },
  {
   "type": "Feature",
   "geometry": {
    "type": "LineString",
    "coordinates": [
     [
      77.6174644,
      12.9436066
     ],
     [
      77.6178166,
      12.9446171
     ],
     [
      77.6178921,
      12.9447647
     ],
     [
      77.6179261,
      12.9449667
     ]
    ]
   },
   "properties": {
    "segID": "way213065296/0",
    "name": "",
    "ward": "Adugodi",
    "roadClass": "residential",
    "lengthM": 159.8,
    "darkness": {
     "alpha": 1.748,
     "beta": 0.252,
     "mean": 0.126,
     "var": 0.03671
    },
    "exposure": {
     "activity": 0.6384,
     "structural": 0.5114,
     "blended": 0.5431
    },
    "confidence": 0.8577,
    "repairPriority": 0.05869,
    "routePenalty": 325.0,
    "reportValue": 0.01994,
    "evidence": {
     "osmLampsWorking": 0,
     "osmLampsBroken": 0,
     "osmLampsUntagged": 0,
     "nightBusTrips": 34.5,
     "wardComplaints2025": 59,
     "reports": 0
    }
   }
  },
  {
   "type": "Feature",
   "geometry": {
    "type": "LineString",
    "coordinates": [
     [
      77.6619509,
      12.9585796
     ],
     [
      77.6619401,
      12.958805
     ]
    ]
   },
   "properties": {
    "segID": "way548812847/0",
    "name": "",
    "ward": "Konena Agrahara",
    "roadClass": "living_street",
    "lengthM": 25.1,
    "darkness": {
     "alpha": 1.748,
     "beta": 0.252,
     "mean": 0.126,
     "var": 0.03671
    },
    "exposure": {
     "activity": 0.7038,
     "structural": 0.3249,
     "blended": 0.4196
    },
    "confidence": 0.8577,
    "repairPriority": 0.04535,
    "routePenalty": 55.1,
    "reportValue": 0.0154,
    "evidence": {
     "osmLampsWorking": 0,
     "osmLampsBroken": 0,
     "osmLampsUntagged": 0,
     "nightBusTrips": 76.2,
     "wardComplaints2025": 70,
     "reports": 0
    }
   }
  },
  {
   "type": "Feature",
   "geometry": {
    "type": "LineString",
    "coordinates": [
     [
      77.6654915,
      12.9653113
     ],
     [
      77.6658472,
      12.9651316
     ],
     [
      77.6659466,
      12.9651002
     ],
     [
      77.6659615,
      12.9650955
     ],
     [
      77.6660376,
      12.9650713
     ],
     [
      77.6661093,
      12.9650486
     ],
     [
      77.6662784,
      12.964963
     ],
     [
      77.6664171,
      12.9649038
     ]
    ]
   },
   "properties": {
    "segID": "way1369518530/0",
    "name": "",
    "ward": "HAL Airport",
    "roadClass": "residential",
    "lengthM": 110.3,
    "darkness": {
     "alpha": 1.44,
     "beta": 0.56,
     "mean": 0.2801,
     "var": 0.06721
    },
    "exposure": {
     "activity": 0.1829,
     "structural": 0.4658,
     "blended": 0.395
    },
    "confidence": 0.3068,
    "repairPriority": 0.03394,
    "routePenalty": 299.5,
    "reportValue": 0.02655,
    "evidence": {
     "osmLampsWorking": 0,
     "osmLampsBroken": 0,
     "osmLampsUntagged": 0,
     "nightBusTrips": 34.9,
     "wardComplaints2025": 49,
     "reports": 0
    }
   }
  },
  {
   "type": "Feature",
   "geometry": {
    "type": "LineString",
    "coordinates": [
     [
      77.6127645,
      12.9601796
     ],
     [
      77.6128842,
      12.9613186
     ]
    ]
   },
   "properties": {
    "segID": "way38770986/0",
    "name": "",
    "ward": "Shantala Nagar",
    "roadClass": "residential",
    "lengthM": 127.3,
    "darkness": {
     "alpha": 1.543,
     "beta": 0.457,
     "mean": 0.2284,
     "var": 0.05874
    },
    "exposure": {
     "activity": 0.2777,
     "structural": 0.2373,
     "blended": 0.2474
    },
    "confidence": 0.4907,
    "repairPriority": 0.02773,
    "routePenalty": 384.5,
    "reportValue": 0.01453,
    "evidence": {
     "osmLampsWorking": 0,
     "osmLampsBroken": 0,
     "osmLampsUntagged": 0,
     "nightBusTrips": 75.8,
     "wardComplaints2025": 0,
     "reports": 0
    }
   }
  },
  {
   "type": "Feature",
   "geometry": {
    "type": "LineString",
    "coordinates": [
     [
      77.6608347,
      12.9294876
     ],
     [
      77.6610647,
      12.9293767
     ],
     [
      77.6611425,
      12.9293688
     ],
     [
      77.6619651,
      12.9291856
     ],
     [
      77.6621485,
      12.9291393
     ],
     [
      77.6626176,
      12.9289076
     ]
    ]
   },
   "properties": {
    "segID": "way778505026/0",
    "name": "",
    "ward": "Agaram",
    "roadClass": "unclassified",
    "lengthM": 205.3,
    "darkness": {
     "alpha": 1.009,
     "beta": 0.991,
     "mean": 0.4954,
     "var": 0.08333
    },
    "exposure": {
     "activity": 0.0331,
     "structural": 0.4057,
     "blended": 0.3126
    },
    "confidence": 0.0004,
    "repairPriority": 6e-05,
    "routePenalty": 691.1,
    "reportValue": 0.02605,
    "evidence": {
     "osmLampsWorking": 0,
     "osmLampsBroken": 0,
     "osmLampsUntagged": 0,
     "nightBusTrips": 51.5,
     "wardComplaints2025": 71,
     "reports": 0
    }
   }
  },
  {
   "type": "Feature",
   "geometry": {
    "type": "LineString",
    "coordinates": [
     [
      77.6454529,
      12.9464835
     ],
     [
      77.6451324,
      12.9467266
     ],
     [
      77.6448253,
      12.946954
     ],
     [
      77.6446818,
      12.9470559
     ],
     [
      77.6445281,
      12.9471696
     ],
     [
      77.6444481,
      12.9472262
     ],
     [
      77.6442929,
      12.9473513
     ]
    ]
   },
   "properties": {
    "segID": "way557018822/1",
    "name": "",
    "ward": "Agaram",
    "roadClass": "unclassified",
    "lengthM": 158.5,
    "darkness": {
     "alpha": 1.009,
     "beta": 0.991,
     "mean": 0.4954,
     "var": 0.08333
    },
    "exposure": {
     "activity": 0.2057,
     "structural": 0.3349,
     "blended": 0.3026
    },
    "confidence": 0.0004,
    "repairPriority": 6e-05,
    "routePenalty": 538.6,
    "reportValue": 0.02522,
    "evidence": {
     "osmLampsWorking": 0,
     "osmLampsBroken": 0,
     "osmLampsUntagged": 0,
     "nightBusTrips": 17.3,
     "wardComplaints2025": 71,
     "reports": 0
    }
   }
  },
  {
   "type": "Feature",
   "geometry": {
    "type": "LineString",
    "coordinates": [
     [
      77.66319,
      12.9284342
     ],
     [
      77.6625624,
      12.9278461
     ]
    ]
   },
   "properties": {
    "segID": "way1274663098/0",
    "name": "",
    "ward": "Agaram",
    "roadClass": "unclassified",
    "lengthM": 94.4,
    "darkness": {
     "alpha": 1.009,
     "beta": 0.991,
     "mean": 0.4954,
     "var": 0.08333
    },
    "exposure": {
     "activity": 0.07,
     "structural": 0.3198,
     "blended": 0.2574
    },
    "confidence": 0.0004,
    "repairPriority": 5e-05,
    "routePenalty": 337.1,
    "reportValue": 0.02145,
    "evidence": {
     "osmLampsWorking": 0,
     "osmLampsBroken": 0,
     "osmLampsUntagged": 0,
     "nightBusTrips": 73.8,
     "wardComplaints2025": 71,
     "reports": 0
    }
   }
  },
  {
   "type": "Feature",
   "geometry": {
    "type": "LineString",
    "coordinates": [
     [
      77.6634774,
      12.9281232
     ],
     [
      77.6632628,
      12.9283741
     ],
     [
      77.6632433,
      12.9283879
     ],
     [
      77.66319,
      12.9284342
     ]
    ]
   },
   "properties": {
    "segID": "way661960944/1",
    "name": "",
    "ward": "Agaram",
    "roadClass": "unclassified",
    "lengthM": 46.7,
    "darkness": {
     "alpha": 1.009,
     "beta": 0.991,
     "mean": 0.4954,
     "var": 0.08333
    },
    "exposure": {
     "activity": 0.0543,
     "structural": 0.5321,
     "blended": 0.4126
    },
    "confidence": 0.0004,
    "repairPriority": 8e-05,
    "routePenalty": 146.4,
    "reportValue": 0.03438,
    "evidence": {
     "osmLampsWorking": 0,
     "osmLampsBroken": 0,
     "osmLampsUntagged": 0,
     "nightBusTrips": 65.2,
     "wardComplaints2025": 71,
     "reports": 0
    }
   }
  }
 ]
}